#dP2022  3  5  6  0  0.00000000      96 __u+U ITR00 EXT  IAC
## 2199 540000.00000000   900.00000000 59643 0.2500000000000
+  117   C06C07C08C09C10C11C12C13C14C16C19C20C21C22C23C24C25
+        C26C27C28C29C30C32C33C34C35C36C37C38C39C40C41C42C43
+        C44C45C46E01E02E03E04E05E07E08E09E10E11E12E13E14E15
+        E18E19E21E25E26E27E30E31E33E34E36G01G02G03G04G05G06
+        G07G08G09G10G11G12G13G14G15G16G17G18G19G20G21G22G23
+        G24G25G26G27G28G29G30G31G32J01J02J03R01R02R03R04R05
+        R07R08R09R11R12R13R14R15R17R18R19R20R21R22R24  0  0
++         9 10 10  9 10  7  9 10  8 10  9  9 10  8  8  8  8
++        10  9  9  8  9  9  8  8  9  9  9  9 10 10  7  9  7
++        10 10  9  8  7  9  9  7  8  8  9  8  8  7  8  8  9
++         8 12  8  8  7  8  8  9  8  8  9  7  8  6  8  7  7
++         8  7  7  7  8  7  8  8  8  8  8  7  7  8  8  7  8
++         8  8  7  6  7  8  8  7  9 12  9 10  8  9  8  8  9
++         9  6  8  8  8  7  8  8  7  8 10  9  9  9  8  0  0
%c M  cc GPS ccc cccc cccc cccc cccc ccccc ccccc ccccc ccccc
%c cc cc ccc ccc cccc cccc cccc cccc ccccc ccccc ccccc ccccc
%f  0.0000000  0.000000000  0.00000000000  0.000000000000000
%f  0.0000000  0.000000000  0.00000000000  0.000000000000000
%i    0    0    0    0      0      0      0      0         0
%i    0    0    0    0      0      0      0      0         0
/* IAC                                ULTRA-RAPID PREDICTION
/* S/V CLOCKS ARE ALIGNED TO GNSS TIME                      
/* G:C1WC2W R:C1PC2P E:C1XC5X C:C2IC6I J:C1CC2S             
/* PCV:IGS14_2196 OL/AL:FES2004  NONE     YN ORB:CoN CLK:CoN
*  2022 03 05  9 45  0.00000000
PC06  -2336.777287  29533.946554 -29920.789900   -446.273711
PC07 -17020.693764  28383.073833  26044.400263    173.877800
PC08 -12511.895484  40309.371318   1653.967789    176.185497
PC09   6956.079733  34151.238340 -23064.064891   -576.921463
PC10  -8258.858573  28762.979746  29802.310607    139.324513
PC11  17392.451985  -2010.535540 -21670.622966   -170.672330
PC12  21946.409573  14322.197350  -9562.436184    682.080916
PC13  -6693.214560  41283.587198  -6237.052301    -98.782801
PC14  26320.728691  -8835.567225   3120.721397    451.929707
PC16  -2856.094977  28477.043947 -30715.218614     95.776887
PC19 -21049.211286  13800.841776 -12002.727402    889.609480
PC20 -27275.359339   3543.007163   4650.455864   -837.863640
PC21  17508.322859   9497.838974 -19531.404011   -927.365473
PC22  -2352.127616  16474.980261 -22390.440693   -959.391045
PC23   3614.340479 -27060.842814  -5766.633778   -948.658525
PC24  16984.059888  -1555.063749  22067.017845   -945.259975
PC25  13874.538338 -21566.427502  10969.235120   -770.423724
PC26  10337.251073  16600.160719  19906.993675    770.527248
PC27 -19509.223261 -19947.938821    899.682338    687.055464
PC28  -6359.104454 -22380.411101 -15406.761273     39.871482
PC29 -10499.479510  11955.296238  22919.292707    523.440120
PC30 -21887.210952  -5726.961003  16349.814212    494.576129
PC32 -17509.951595  -9437.904794  19588.664440   -971.693915
PC33  21025.722774 -13933.757613  11965.110095   -962.454919
PC34  21593.605892   4796.303940 -17006.089452   -455.292483
PC35   6346.803705  21974.202184  15953.721974    167.862028
PC36 -14568.934207  20902.885933 -11374.469507   -928.922542
PC37  -9300.792448 -17769.796529 -19384.607305   -948.153360
PC38 -15764.151371  38311.270631   8252.672416    215.772661
PC39  -8275.700344  24208.999908 -33466.527409     34.857546
PC40 -23138.583122  22486.367421  27031.079859    249.652243
PC41   2794.665662 -16609.881378  22303.952126   -949.002608
PC42  27199.780424  -2965.531622  -5486.805107   -935.239857
PC43  11161.408443 -11481.239644 -22862.242543   -937.974007
PC44  20106.648992  19307.818963   -732.845169    584.774529
PC45  -3468.081855  27044.031565   6002.296213    696.605213
PC46 -17113.434022   3278.980736 -21809.706298   -201.148047
PE01 -23790.664180  15613.969539  -8175.345271   -590.840170
PE02  23747.053906 -15720.969374   8019.252646    284.233002
PE03  24126.007729  -5362.216652  16296.467304   -534.149824
PE04  -6117.446848  15982.076816 -24145.008454   -977.862319
PE05  28288.657875   8615.188418  -1285.928995   -203.295067
PE07 -15930.950750 -17393.269109  17887.428753   -645.229645
PE08   5582.479358 -16002.187314  24270.460165   -489.927554
PE09  16262.172910  17178.067233 -17796.538916   5339.197061
PE10   4485.648052  28797.727290   5160.262780   -498.741738
PE11  10810.866133  27055.104453  -5166.886022   4307.354358
PE12  -2465.157698  25911.385857  14076.412676   4728.977966
PE13 -10505.809938 -27310.426762   4516.904919    427.033773
PE14  29330.051450   6521.576633  -8572.323767  -1767.283058
PE15   2433.577520 -25853.365970 -14208.672637    759.643471
PE18 -22227.055864 -12013.541066   -668.443270  -1720.596159
PE19 -25543.440088   3522.863543 -14535.083780   -799.005663
PE21 -20241.382835   -633.185287 -21598.026933   -720.733582
PE25  20092.449001    890.906946  21713.706100   -565.723963
PE26 -17369.103298 -11695.571639  20930.668355   -876.447591
PE27  -4910.770760 -17496.182008 -23364.501485   -246.147787
PE30  14095.397812 -23832.485643 -10450.286963   -323.534182
PE31 -13198.379505  23939.324662  11366.851002   -493.078446
PE33 -13899.437777   9135.586716  24491.409859   -458.863019
PE34  13791.508336  -9401.459993 -24447.014707   -505.103454
PE36  17185.694441  12711.079527 -20462.721699   -340.933432
PG01 -13450.272838   7067.245532  21453.006835    416.425902
PG02  14179.593310  15487.588008 -15524.175665   -651.846152
PG03 -22714.976744  12316.749398   5787.881452   -149.424931
PG04 -21320.864388   2265.340987 -15723.545891   -185.731386
PG05  19459.704570    551.700259 -18296.459375    -73.579570
PG06   5499.829524  25696.369827  -3491.507708    221.129565
PG07  -6496.554536  21894.613145 -12746.469762    314.288725
PG08 -25398.011867  -5113.401337   6616.049835    -58.625877
PG09 -11906.428581  11255.554788 -20977.938247   -351.349056
PG10   4824.217299 -19041.265289  17880.943981   -337.785839
PG11  12532.490805  16912.220021 -16210.006214    -70.585458
PG12  23551.954760  -8590.605571   8299.935394   -180.210643
PG13  23059.145034  13354.439853    244.722788    271.727328
PG14  -6402.619874  19275.160954  17070.214778    -90.700333
PG15  25724.740875   2122.119428   6521.315525    -79.163940
PG16 -16832.343954  -5744.365092 -20138.721875   -477.005043
PG17   3958.652114  17149.813736  20310.114057    583.181396
PG18   6677.922183 -22037.749196 -13148.141451    226.851086
PG19  11935.698982  18181.205823  15113.651094    126.954948
PG20  12945.921409   8973.211593 -21368.731551    516.435775
PG21 -16208.654467  -4284.502278  21395.233264    158.970562
PG22 -14429.997498 -18142.636130  13532.162884    222.791660
PG23  14847.636874 -19994.308177   9085.252057     -4.147608
PG24  15407.959368  -2715.349571  21171.097997    270.613554
PG25  19343.055954 -17737.533627  -3215.438304    294.056987
PG26  -6723.114794 -14644.758095 -21161.330775    188.294485
PG27 -23105.446821 -12876.146945  -4356.119707    143.159394
PG28   1685.602006  16311.728984  21455.969571    387.235569
PG29  14421.923310  -8230.594116 -20791.100843   -487.651037
PG30  -1021.217919  25880.135438  -5179.018341   -516.975500
PG31  -6958.547349 -24637.565726  -6205.252737   -167.529509
PG32  -8956.495235 -17444.554978  18133.766764    -78.886687
PJ01 -33764.748401  14543.246260 -16130.011395    215.543759
PJ02 -28849.817234  30675.947578   2042.911932     -1.754262
PJ03 -25615.056087  22906.925495  29507.072056     -0.821513
PR01 -15237.476228  -7863.078723  18885.188118      7.186101
PR02 -25479.525065    476.408189   1768.308174    511.567778
PR03 -19103.503899   8150.524899 -14800.637983     52.567033
PR04  -2176.458486  10864.847010 -22945.073776    130.492342
PR05  15886.434560   7768.106707 -18357.710664     88.820946
PR07  18441.353981  -8417.364108  15493.456035     32.317012
PR08   1959.119294 -11022.042783  22977.759586    -63.868526
PR09  13888.122534  -5250.161849  20773.520059     42.715068
PR11   6597.292047 -23099.147229  -8587.100832     44.289206
PR12  -5221.314247 -12652.121390 -21500.746526     17.352708
PR13 -13333.863854   4066.300660 -21384.394861    -19.049418
PR14 -14027.087127  19703.150563  -8082.728459     75.056478
PR15  -6371.917559  22880.279756   9320.781028     97.768833
PR17  -6643.000687   8896.607526  22977.891285    506.987144
PR18   5174.277842  20215.988517  14644.226591    109.317196
PR19  13349.745038  21730.497253   -375.350633   -180.433629
PR20  15030.582109   9086.985967 -18465.862872    -66.112651
PR21   5678.892624 -10052.560091 -22741.127943   -282.849945
PR22  -5768.255054 -20672.606904 -13879.680384   -168.601442
PR24 -15407.802203  -7918.146786  18739.736798     82.969846
EOF
